SL-4 R/B                
1 39679U 14021B   25340.24212239  .00020408  00000+0  48291-3 0  9991
2 39679  51.6089  72.1670 0102356 122.7333 238.3567 15.36435754641891
ALOS-2                  
1 39766U 14029A   25340.25024139  .00003836  00000+0  52034-3 0  9993
2 39766  97.9235  75.1891 0001506 105.7888 254.3490 14.79464234623055
YAOGAN-29               
1 41038U 15069A   25340.27429520  .00000970  00000+0  12644-3 0  9997
2 41038  98.0224   3.4251 0000533 358.1959   1.9252 14.82871965542033
ASTRO-H (HITOMI)        
1 41337U 16012A   25340.07692170  .00005344  00000+0  32124-3 0  9994
2 41337  30.9991 240.3255 0009447 111.4230 248.7417 15.09288003538070
HXMT (HUIYAN)           
1 42758U 17034A   25340.26891076  .00006549  00000+0  34075-3 0  9999
2 42758  43.0117 175.5351 0032417   1.9011 358.1955 15.16169522468350
CZ-2C R/B               
1 43521U 18054D   25340.07193106  .00125930  00000+0  89169-3 0  9999
2 43521  35.1329 226.0624 0016532  73.2180 287.0365 15.72413421414000
SAOCOM 1A               
1 43641U 18076A   25340.25838654  .00001006  00000+0  13291-3 0  9990
2 43641  97.8853 164.7752 0001480  88.1264 272.0119 14.82146794387527
H-2A R/B                
1 43682U 18084L   25340.24818519  .00029724  00000+0  81047-3 0  9992
2 43682  98.8774 172.9835 0027883 348.9010  11.1611 15.37030661391406
SAOCOM 1B               
1 46265U 20059A   25340.22213616  .00000589  00000+0  80531-4 0  9998
2 46265  97.8849 163.8404 0001270  87.0354 273.1005 14.82148641284903
CSS (TIANHE)            
1 48274U 21035A   25340.24443909  .00033378  00000+0  42196-3 0  9993
2 48274  41.4683  56.1283 0009604 339.9163  20.1296 15.58781586263017
COSMOS 2550             
1 48865U 21056A   25340.27050008  .00002588  00000+0  84460-4 0  9999
2 48865  67.1443 323.5014 0008378 269.8533  90.1661 15.33831957249135
CZ-2C R/B               
1 52794U 22058K   25340.28872768  .00041064  00000+0  74243-3 0  9993
2 52794  50.1914  76.4372 0046048 171.8986 188.2736 15.48052933195639
