CCSDS_OMM_VERS = 2.0
CREATION_DATE  = 
ORIGINATOR     = 

OBJECT_NAME    = SL-4 R/B
OBJECT_ID      = 2014-021B
CENTER_NAME    = EARTH
REF_FRAME      = TEME
TIME_SYSTEM    = UTC
MEAN_ELEMENT_THEORY = SGP/SGP4

EPOCH          = 2025-12-06T05:48:39.374496
MEAN_MOTION    = 15.36435754
ECCENTRICITY   = .01023564
INCLINATION    = 51.6089
RA_OF_ASC_NODE = 72.1670
ARG_OF_PERICENTER = 122.7333
MEAN_ANOMALY   = 238.3567

EPHEMERIS_TYPE = 0
CLASSIFICATION_TYPE = U
NORAD_CAT_ID   = 39679
ELEMENT_SET_NO = 999
REV_AT_EPOCH   = 64189
BSTAR          = .48290895E-3
MEAN_MOTION_DOT = .20408E-3
MEAN_MOTION_DDOT = 0

CCSDS_OMM_VERS = 2.0
CREATION_DATE  = 
ORIGINATOR     = 

OBJECT_NAME    = ALOS-2
OBJECT_ID      = 2014-029A
CENTER_NAME    = EARTH
REF_FRAME      = TEME
TIME_SYSTEM    = UTC
MEAN_ELEMENT_THEORY = SGP/SGP4

EPOCH          = 2025-12-06T06:00:20.856096
MEAN_MOTION    = 14.79464234
ECCENTRICITY   = .00015069
INCLINATION    = 97.9235
RA_OF_ASC_NODE = 75.1891
ARG_OF_PERICENTER = 105.7888
MEAN_ANOMALY   = 254.3490

EPHEMERIS_TYPE = 0
CLASSIFICATION_TYPE = U
NORAD_CAT_ID   = 39766
ELEMENT_SET_NO = 999
REV_AT_EPOCH   = 62305
BSTAR          = .52034417E-3
MEAN_MOTION_DOT = .3836E-4
MEAN_MOTION_DDOT = 0

CCSDS_OMM_VERS = 2.0
CREATION_DATE  = 
ORIGINATOR     = 

OBJECT_NAME    = YAOGAN-29
OBJECT_ID      = 2015-069A
CENTER_NAME    = EARTH
REF_FRAME      = TEME
TIME_SYSTEM    = UTC
MEAN_ELEMENT_THEORY = SGP/SGP4

EPOCH          = 2025-12-06T06:34:59.105280
MEAN_MOTION    = 14.82871965
ECCENTRICITY   = .00005335
INCLINATION    = 98.0224
RA_OF_ASC_NODE = 3.4251
ARG_OF_PERICENTER = 358.1959
MEAN_ANOMALY   = 1.9252

EPHEMERIS_TYPE = 0
CLASSIFICATION_TYPE = U
NORAD_CAT_ID   = 41038
ELEMENT_SET_NO = 999
REV_AT_EPOCH   = 54203
BSTAR          = .1264384E-3
MEAN_MOTION_DOT = .97E-5
MEAN_MOTION_DDOT = 0

CCSDS_OMM_VERS = 2.0
CREATION_DATE  = 
ORIGINATOR     = 

OBJECT_NAME    = ASTRO-H (HITOMI)
OBJECT_ID      = 2016-012A
CENTER_NAME    = EARTH
REF_FRAME      = TEME
TIME_SYSTEM    = UTC
MEAN_ELEMENT_THEORY = SGP/SGP4

EPOCH          = 2025-12-06T01:50:46.034880
MEAN_MOTION    = 15.09288003
ECCENTRICITY   = .00094475
INCLINATION    = 30.9991
RA_OF_ASC_NODE = 240.3255
ARG_OF_PERICENTER = 111.4230
MEAN_ANOMALY   = 248.7417

EPHEMERIS_TYPE = 0
CLASSIFICATION_TYPE = U
NORAD_CAT_ID   = 41337
ELEMENT_SET_NO = 999
REV_AT_EPOCH   = 53807
BSTAR          = .32124352E-3
MEAN_MOTION_DOT = .5344E-4
MEAN_MOTION_DDOT = 0

CCSDS_OMM_VERS = 2.0
CREATION_DATE  = 
ORIGINATOR     = 

OBJECT_NAME    = HXMT (HUIYAN)
OBJECT_ID      = 2017-034A
CENTER_NAME    = EARTH
REF_FRAME      = TEME
TIME_SYSTEM    = UTC
MEAN_ELEMENT_THEORY = SGP/SGP4

EPOCH          = 2025-12-06T06:27:13.889664
MEAN_MOTION    = 15.16169522
ECCENTRICITY   = .00324173
INCLINATION    = 43.0117
RA_OF_ASC_NODE = 175.5351
ARG_OF_PERICENTER = 1.9011
MEAN_ANOMALY   = 358.1955

EPHEMERIS_TYPE = 0
CLASSIFICATION_TYPE = U
NORAD_CAT_ID   = 42758
ELEMENT_SET_NO = 999
REV_AT_EPOCH   = 46835
BSTAR          = .34075445E-3
MEAN_MOTION_DOT = .6549E-4
MEAN_MOTION_DDOT = 0

CCSDS_OMM_VERS = 2.0
CREATION_DATE  = 
ORIGINATOR     = 

OBJECT_NAME    = CZ-2C R/B
OBJECT_ID      = 2018-054D
CENTER_NAME    = EARTH
REF_FRAME      = TEME
TIME_SYSTEM    = UTC
MEAN_ELEMENT_THEORY = SGP/SGP4

EPOCH          = 2025-12-06T01:43:34.843584
MEAN_MOTION    = 15.72413421
ECCENTRICITY   = .0016532
INCLINATION    = 35.1329
RA_OF_ASC_NODE = 226.0624
ARG_OF_PERICENTER = 73.2180
MEAN_ANOMALY   = 287.0365

EPHEMERIS_TYPE = 0
CLASSIFICATION_TYPE = U
NORAD_CAT_ID   = 43521
ELEMENT_SET_NO = 999
REV_AT_EPOCH   = 41400
BSTAR          = .89169289E-3
MEAN_MOTION_DOT = .12593E-2
MEAN_MOTION_DDOT = 0

CCSDS_OMM_VERS = 2.0
CREATION_DATE  = 
ORIGINATOR     = 

OBJECT_NAME    = SAOCOM 1A
OBJECT_ID      = 2018-076A
CENTER_NAME    = EARTH
REF_FRAME      = TEME
TIME_SYSTEM    = UTC
MEAN_ELEMENT_THEORY = SGP/SGP4

EPOCH          = 2025-12-06T06:12:04.597056
MEAN_MOTION    = 14.82146794
ECCENTRICITY   = .00014803
INCLINATION    = 97.8853
RA_OF_ASC_NODE = 164.7752
ARG_OF_PERICENTER = 88.1264
MEAN_ANOMALY   = 272.0119

EPHEMERIS_TYPE = 0
CLASSIFICATION_TYPE = U
NORAD_CAT_ID   = 43641
ELEMENT_SET_NO = 999
REV_AT_EPOCH   = 38752
BSTAR          = .13291311E-3
MEAN_MOTION_DOT = .1006E-4
MEAN_MOTION_DDOT = 0

CCSDS_OMM_VERS = 2.0
CREATION_DATE  = 
ORIGINATOR     = 

OBJECT_NAME    = H-2A R/B
OBJECT_ID      = 2018-084L
CENTER_NAME    = EARTH
REF_FRAME      = TEME
TIME_SYSTEM    = UTC
MEAN_ELEMENT_THEORY = SGP/SGP4

EPOCH          = 2025-12-06T05:57:23.200416
MEAN_MOTION    = 15.37030661
ECCENTRICITY   = .00278837
INCLINATION    = 98.8774
RA_OF_ASC_NODE = 172.9835
ARG_OF_PERICENTER = 348.9010
MEAN_ANOMALY   = 11.1611

EPHEMERIS_TYPE = 0
CLASSIFICATION_TYPE = U
NORAD_CAT_ID   = 43682
ELEMENT_SET_NO = 999
REV_AT_EPOCH   = 39140
BSTAR          = .81047384E-3
MEAN_MOTION_DOT = .29724E-3
MEAN_MOTION_DDOT = 0

CCSDS_OMM_VERS = 2.0
CREATION_DATE  = 
ORIGINATOR     = 

OBJECT_NAME    = SAOCOM 1B
OBJECT_ID      = 2020-059A
CENTER_NAME    = EARTH
REF_FRAME      = TEME
TIME_SYSTEM    = UTC
MEAN_ELEMENT_THEORY = SGP/SGP4

EPOCH          = 2025-12-06T05:19:52.564224
MEAN_MOTION    = 14.82148641
ECCENTRICITY   = .00012706
INCLINATION    = 97.8849
RA_OF_ASC_NODE = 163.8404
ARG_OF_PERICENTER = 87.0354
MEAN_ANOMALY   = 273.1005

EPHEMERIS_TYPE = 0
CLASSIFICATION_TYPE = U
NORAD_CAT_ID   = 46265
ELEMENT_SET_NO = 999
REV_AT_EPOCH   = 28490
BSTAR          = .80530681E-4
MEAN_MOTION_DOT = .589E-5
MEAN_MOTION_DDOT = 0

CCSDS_OMM_VERS = 2.0
CREATION_DATE  = 
ORIGINATOR     = 

OBJECT_NAME    = CSS (TIANHE)
OBJECT_ID      = 2021-035A
CENTER_NAME    = EARTH
REF_FRAME      = TEME
TIME_SYSTEM    = UTC
MEAN_ELEMENT_THEORY = SGP/SGP4

EPOCH          = 2025-12-06T05:51:59.537376
MEAN_MOTION    = 15.58781586
ECCENTRICITY   = .00096041
INCLINATION    = 41.4683
RA_OF_ASC_NODE = 56.1283
ARG_OF_PERICENTER = 339.9163
MEAN_ANOMALY   = 20.1296

EPHEMERIS_TYPE = 0
CLASSIFICATION_TYPE = U
NORAD_CAT_ID   = 48274
ELEMENT_SET_NO = 999
REV_AT_EPOCH   = 26301
BSTAR          = .42196391E-3
MEAN_MOTION_DOT = .33378E-3
MEAN_MOTION_DDOT = 0

CCSDS_OMM_VERS = 2.0
CREATION_DATE  = 
ORIGINATOR     = 

OBJECT_NAME    = COSMOS 2550
OBJECT_ID      = 2021-056A
CENTER_NAME    = EARTH
REF_FRAME      = TEME
TIME_SYSTEM    = UTC
MEAN_ELEMENT_THEORY = SGP/SGP4

EPOCH          = 2025-12-06T06:29:31.206912
MEAN_MOTION    = 15.33831957
ECCENTRICITY   = .00083782
INCLINATION    = 67.1443
RA_OF_ASC_NODE = 323.5014
ARG_OF_PERICENTER = 269.8533
MEAN_ANOMALY   = 90.1661

EPHEMERIS_TYPE = 0
CLASSIFICATION_TYPE = U
NORAD_CAT_ID   = 48865
ELEMENT_SET_NO = 999
REV_AT_EPOCH   = 24913
BSTAR          = .84459915E-4
MEAN_MOTION_DOT = .2588E-4
MEAN_MOTION_DDOT = 0

CCSDS_OMM_VERS = 2.0
CREATION_DATE  = 
ORIGINATOR     = 

OBJECT_NAME    = CZ-2C R/B
OBJECT_ID      = 2022-058K
CENTER_NAME    = EARTH
REF_FRAME      = TEME
TIME_SYSTEM    = UTC
MEAN_ELEMENT_THEORY = SGP/SGP4

EPOCH          = 2025-12-06T06:55:46.071552
MEAN_MOTION    = 15.48052933
ECCENTRICITY   = .00460482
INCLINATION    = 50.1914
RA_OF_ASC_NODE = 76.4372
ARG_OF_PERICENTER = 171.8986
MEAN_ANOMALY   = 188.2736

EPHEMERIS_TYPE = 0
CLASSIFICATION_TYPE = U
NORAD_CAT_ID   = 52794
ELEMENT_SET_NO = 999
REV_AT_EPOCH   = 19563
BSTAR          = .74243161E-3
MEAN_MOTION_DOT = .41064E-3
MEAN_MOTION_DDOT = 0

